NORAD_CAT_ID,OBJECT_NAME,OBJECT_TYPE,EPOCH,MEAN_MOTION,ECCENTRICITY,INCLINATION,RA_OF_ASC_NODE,ARG_OF_PERICENTER,MEAN_ANOMALY,BSTAR,MEAN_MOTION_DOT,MEAN_MOTION_DDOT,TLE_LINE0,TLE_LINE1,TLE_LINE2,SEMIMAJOR_AXIS,PERIOD,APOGEE,PERIGEE,DECAYED
52452.0,STARLINK-3909,PAYLOAD,2022-07-11 14:00:01,15.08861595,0.0002032,53.2142,311.6244,40.092,159.5156,-0.00089327,-0.00014485,0.0,0 STARLINK-3909,1 52452U 22049B   22192.58334491 -.00014485  00000-0 -89327-3 0  9994,2 52452  53.2142 311.6244 0002032  40.0920 159.5156 15.08861595  1304,6917.814,95.436,541.085,538.274,0.0
52452.0,STARLINK-3909,PAYLOAD,2022-07-11 22:00:00,15.08868467,0.0002003,53.2141,310.1277,37.0465,174.173,-0.0027666,-0.00044085,0.0,0 STARLINK-3909,1 52452U 22049B   22192.91667824 -.00044085  00000-0 -27666-2 0  9996,2 52452  53.2141 310.1277 0002003  37.0465 174.1730 15.08868467  1307,6917.793000000002,95.436,541.044,538.273,0.0
52452.0,STARLINK-3909,PAYLOAD,2022-07-12 14:00:01,15.08872677,0.0001953,53.2145,307.135,36.8657,197.578,-0.0023999,-0.00038315,0.0,0 STARLINK-3909,1 52452U 22049B   22193.58334491 -.00038315  00000-0 -23999-2 0  9995,2 52452  53.2145 307.1350 0001953  36.8657 197.5780 15.08872677 10562,6917.781,95.435,540.997,538.294,0.0
52452.0,STARLINK-3909,PAYLOAD,2022-07-12 22:00:00,15.08864568,0.0001918,53.2143,305.6382,34.0303,212.0408,-0.00089855,-0.0001457,0.0,0 STARLINK-3909,1 52452U 22049B   22193.91667824 -.00014570  00000-0 -89855-3 0  9992,2 52452  53.2143 305.6382 0001918  34.0303 212.0408 15.08864568  1309,6917.805,95.436,540.997,538.3430000000002,0.0
52452.0,STARLINK-3909,PAYLOAD,2022-07-13 06:00:00,15.0884687,0.0001758,53.2145,304.1404,39.5695,218.1241,0.00067447,0.00010464,0.0,0 STARLINK-3909,1 52452U 22049B   22194.25001157  .00010464  00000-0  67447-3 0  9990,2 52452  53.2145 304.1404 0001758  39.5695 218.1241 15.08846870 10663,6917.859,95.437,540.941,538.508,0.0
52452.0,STARLINK-3909,PAYLOAD,2022-07-13 14:24:05,15.08843027,0.000204,53.2142,302.5699,44.6069,315.5087,-5.6851e-05,-1.193e-05,0.0,0 STARLINK-3909,1 52452U 22049B   22194.60006366 -.00001193  00000-0 -56851-4 0  9995,2 52452  53.2142 302.5699 0002040  44.6069 315.5087 15.08843027 10712,6917.871,95.437,541.1469999999998,538.325,0.0
52452.0,STARLINK-3909,PAYLOAD,2022-07-13 22:00:00,15.08845755,0.0001897,53.214,301.149,35.7857,245.0921,-0.0044671,-0.00070697,0.0,0 STARLINK-3909,1 52452U 22049B   22194.91667824 -.00070697  00000-0 -44671-2 0  9991,2 52452  53.2140 301.1490 0001897  35.7857 245.0921 15.08845755  1308,6917.863,95.437,541.04,538.415,0.0
52452.0,STARLINK-3909,PAYLOAD,2022-07-14 14:00:01,15.08807235,0.0001989,53.2138,298.1571,39.2243,264.7784,6.907300000000001e-05,8.1e-06,0.0,0 STARLINK-3909,1 52452U 22049B   22195.58334491  .00000810  00000-0  69073-4 0  9999,2 52452  53.2138 298.1571 0001989  39.2243 264.7784 15.08807235 10867,6917.981,95.44,541.222,538.47,0.0
52452.0,STARLINK-3909,PAYLOAD,2022-07-14 22:00:00,15.08835472,0.0001943,53.2133,296.6601,38.0945,277.4642,-0.0016783,-0.00026896,0.0,0 STARLINK-3909,1 52452U 22049B   22195.91667824 -.00026896  00000-0 -16783-2 0  9997,2 52452  53.2133 296.6601 0001943  38.0945 277.4642 15.08835472  1302,6917.894,95.438,541.1030000000002,538.415,0.0
52452.0,STARLINK-3909,PAYLOAD,2022-07-15 06:00:00,15.08817423,0.0001821,53.2133,295.1627,43.5271,283.6115,0.0024959,0.00039634,0.0,0 STARLINK-3909,1 52452U 22049B   22196.25001157  .00039634  00000-0  24959-2 0  9992,2 52452  53.2133 295.1627 0001821  43.5271 283.6115 15.08817423 10964,6917.949000000001,95.439,541.0740000000002,538.555,0.0
52452.0,STARLINK-3909,PAYLOAD,2022-07-15 14:00:01,15.08834415,0.0002035,53.213,293.6682,39.5381,299.1868,0.0005577,8.598e-05,0.0,0 STARLINK-3909,1 52452U 22049B   22196.58334491  .00008598  00000-0  55770-3 0  9999,2 52452  53.2130 293.6682 0002035  39.5381 299.1868 15.08834415  1305,6917.897,95.438,541.17,538.355,0.0
52452.0,STARLINK-3909,PAYLOAD,2022-07-15 22:00:00,15.08865163,0.0001979,53.2126,292.1709,38.3525,311.9633,-0.0015405999999999,-0.00024741,0.0,0 STARLINK-3909,1 52452U 22049B   22196.91667824 -.00024741  00000-0 -15406-2 0  9996,2 52452  53.2126 292.1709 0001979  38.3525 311.9633 15.08865163 11068,6917.803000000001,95.436,541.038,538.299,0.0
52452.0,STARLINK-3909,PAYLOAD,2022-07-16 14:00:01,15.0883544,0.0002037,53.2125,289.1788,36.6283,336.8842,0.00094139,0.00014724,0.0,0 STARLINK-3909,1 52452U 22049B   22197.58334491  .00014724  00000-0  94139-3 0  9990,2 52452  53.2125 289.1788 0002037  36.6283 336.8842 15.08835440  1307,6917.894,95.438,541.169,538.35,0.0
52452.0,STARLINK-3909,PAYLOAD,2022-07-16 22:00:00,15.08883106,0.0001955,53.2123,287.6812,34.5376,350.5735,-0.0029172,-0.00046472,0.0,0 STARLINK-3909,1 52452U 22049B   22197.91667824 -.00046472  00000-0 -29172-2 0  9997,2 52452  53.2123 287.6812 0001955  34.5376 350.5735 15.08883106  1300,6917.749,95.435,540.966,538.261,0.0
52452.0,STARLINK-3909,PAYLOAD,2022-07-17 14:00:01,15.08838712,0.0002127,53.2174,284.6833,37.8127,10.4897,-0.00022433,-3.857e-05,0.0,0 STARLINK-3909,1 52452U 22049B   22198.58334491 -.00003857  00000-0 -22433-3 0  9996,2 52452  53.2174 284.6833 0002127  37.8127  10.4897 15.08838712  1302,6917.884,95.438,541.221,538.278,0.0
52452.0,STARLINK-3909,PAYLOAD,2022-07-17 22:00:00,15.08837996,0.0002049,53.2174,283.1858,37.6335,22.2623,-0.00016991,-2.991e-05,0.0,0 STARLINK-3909,1 52452U 22049B   22198.91667824 -.00002991  00000-0 -16991-3 0  9992,2 52452  53.2174 283.1858 0002049  37.6335  22.2623 15.08837996 11363,6917.887,95.438,541.169,538.3340000000002,0.0
52452.0,STARLINK-3909,PAYLOAD,2022-07-18 14:00:01,15.08835547,0.000215,53.2126,280.1993,35.1904,47.9289,-0.00080543,-0.00013083,0.0,0 STARLINK-3909,1 52452U 22049B   22199.58334491 -.00013083  00000-0 -80543-3 0  9995,2 52452  53.2126 280.1993 0002150  35.1904  47.9289 15.08835547  1300,6917.894,95.438,541.246,538.2719999999998,0.0
52452.0,STARLINK-3909,PAYLOAD,2022-07-18 22:00:00,15.08839128,0.0002018,53.2127,278.7015,34.7849,59.9144,-0.0011412,-0.00018404,0.0,0 STARLINK-3909,1 52452U 22049B   22199.91667824 -.00018404  00000-0 -11412-2 0  9991,2 52452  53.2127 278.7015 0002018  34.7849  59.9144 15.08839128  1307,6917.8830000000025,95.438,541.144,538.352,0.0
52452.0,STARLINK-3909,PAYLOAD,2022-07-19 06:00:00,15.08840404,0.0001965,53.2129,277.2044,38.3456,67.9369,0.00089579,0.00013997,0.0,0 STARLINK-3909,1 52452U 22049B   22200.25001157  .00013997  00000-0  89579-3 0  9992,2 52452  53.2129 277.2044 0001965  38.3456  67.9369 15.08840404 11565,6917.879,95.438,541.104,538.385,0.0
52452.0,STARLINK-3909,PAYLOAD,2022-07-19 14:00:01,15.08843841,0.000215,53.2129,275.7095,33.3651,84.5236,-7.077199999999999e-05,-1.415e-05,0.0,0 STARLINK-3909,1 52452U 22049B   22200.58334491 -.00001415  00000-0 -70772-4 0  9998,2 52452  53.2129 275.7095 0002150  33.3651  84.5236 15.08843841  1300,6917.869000000002,95.437,541.221,538.246,0.0
52452.0,STARLINK-3909,PAYLOAD,2022-07-19 22:00:00,15.08837671,0.0002127,53.2174,274.2073,32.5337,96.9158,-0.00011144,-2.061e-05,0.0,0 STARLINK-3909,1 52452U 22049B   22200.91667824 -.00002061  00000-0 -11144-3 0  9999,2 52452  53.2174 274.2073 0002127  32.5337  96.9158 15.08837671  1300,6917.888000000001,95.438,541.224,538.281,0.0
52452.0,STARLINK-3909,PAYLOAD,2022-07-20 06:00:00,15.08869167,0.0001885999999999,53.2132,272.7146,35.219,105.8815,-0.0012987,-0.00020914,0.0,0 STARLINK-3909,1 52452U 22049B   22201.25001157 -.00020914  00000-0 -12987-2 0  9990,2 52452  53.2132 272.7146 0001886  35.2190 105.8815 15.08869167 11728,6917.791,95.436,540.961,538.352,0.0
52452.0,STARLINK-3909,PAYLOAD,2022-07-20 14:00:01,15.08820801,0.0002085999999999,53.213,271.2197,29.8974,122.828,0.0019024,0.00030103,0.0,0 STARLINK-3909,1 52452U 22049B   22201.58334491  .00030103  00000-0  19024-2 0  9994,2 52452  53.2130 271.2197 0002086  29.8974 122.8280 15.08820801  1308,6917.939,95.439,541.247,538.361,0.0
52452.0,STARLINK-3909,PAYLOAD,2022-07-20 22:00:01,15.08833392,0.000193,53.2128,269.7217,32.3465,132.0243,-0.0022855,-0.00036472,0.0,0 STARLINK-3909,1 52452U 22049B   22201.91668981 -.00036472  00000-0 -22855-2 0  9998,2 52452  53.2128 269.7217 0001930  32.3465 132.0243 15.08833392  1302,6917.901,95.438,541.101,538.43,0.0
52452.0,STARLINK-3909,PAYLOAD,2022-07-21 06:00:00,15.08721938,0.0001899999999999,53.2164,268.2218,31.4329,144.4636,0.010771,0.00174854,0.0,0 STARLINK-3909,1 52452U 22049B   22202.25001157  .00174854  00000-0  10771-1 0  9990,2 52452  53.2164 268.2218 0001900  31.4329 144.4636 15.08721938 11871,6918.241,95.445,541.4209999999998,538.7919999999998,0.0
52452.0,STARLINK-3909,PAYLOAD,2022-07-21 14:00:01,15.08798729,0.0002134999999999,53.2128,266.7302,32.6637,154.9062,0.002532,0.00040194,0.0,0 STARLINK-3909,1 52452U 22049B   22202.58335648  .00040194  00000-0  25320-2 0  9997,2 52452  53.2128 266.7302 0002135  32.6637 154.9062 15.08798729  1302,6918.007,95.44,541.349,538.395,0.0
52452.0,STARLINK-3909,PAYLOAD,2022-07-21 22:00:00,15.08824981,0.0001956999999999,53.2126,265.2322,34.9169,164.1547,-0.00027431,-4.649e-05,0.0,0 STARLINK-3909,1 52452U 22049B   22202.91667824 -.00004649  00000-0 -27431-3 0  9991,2 52452  53.2126 265.2322 0001957  34.9169 164.1547 15.08824981 11977,6917.926,95.439,541.145,538.437,0.0
52452.0,STARLINK-3909,PAYLOAD,2022-07-22 06:00:00,15.08842631,0.0001949,53.2127,263.736,38.2117,172.4314,-0.00052617,-8.653e-05,0.0,0 STARLINK-3909,1 52452U 22049B   22203.25001157 -.00008653  00000-0 -52617-3 0  9993,2 52452  53.2127 263.7360 0001949  38.2117 172.4314 15.08842631  1306,6917.871999999999,95.437,541.086,538.389,0.0
52452.0,STARLINK-3909,PAYLOAD,2022-07-22 22:00:00,15.08840297,0.0002018,53.2137,260.7428,36.673,197.1586,0.0002384,3.508e-05,0.0,0 STARLINK-3909,1 52452U 22049B   22203.91667824  .00003508  00000-0  23840-3 0  9993,2 52452  53.2137 260.7428 0002018  36.6730 197.1586 15.08840297 12123,6917.879,95.438,541.141,538.3480000000002,0.0
